{
  "type": "FeatureCollection",
  "name": "Benguet_Atok_boundary",
  "crs": {
    "type": "name",
    "properties": {
      "name": "EPSG:4326"
    }
  },
  "features": [
    {
      "type": "Feature",
      "properties": {
        "adm1_psgc": 1400000000,
        "adm2_psgc": 1401100000,
        "adm3_psgc": 1401101000,
        "adm3_en": "Atok",
        "geo_level": "Mun",
        "len_crs": 61233,
        "area_crs": 178620491,
        "len_km": 61,
        "area_km2": 178.0
      },
      "geometry": {
        "type": "Polygon",
        "coordinates": [
          [
            [
              120.78635212,
              16.67898553
            ],
            [
              120.78656921,
              16.67481553
            ],
            [
              120.78545107,
              16.67163573
            ],
            [
              120.78441782,
              16.66771558
            ],
            [
              120.78394848,
              16.66627647
            ],
            [
              120.78454454,
              16.66091197
            ],
            [
              120.78458565,
              16.65997475
            ],
            [
              120.78462894,
              16.65919645
            ],
            [
              120.78541743,
              16.65805898
            ],
            [
              120.7858743,
              16.65530977
            ],
            [
              120.7829758,
              16.64709733
            ],
            [
              120.78105376,
              16.64314777
            ],
            [
              120.78237026,
              16.63745191
            ],
            [
              120.78397572,
              16.63077668
            ],
            [
              120.77889668,
              16.62869446
            ],
            [
              120.77788748,
              16.62828072
            ],
            [
              120.77691805,
              16.62788329
            ],
            [
              120.77687723,
              16.62786656
            ],
            [
              120.77522417,
              16.62141526
            ],
            [
              120.77427193,
              16.61769902
            ],
            [
              120.77448521,
              16.61706735
            ],
            [
              120.77450501,
              16.61696114
            ],
            [
              120.77455797,
              16.61667716
            ],
            [
              120.77326719,
              16.61420457
            ],
            [
              120.7730577,
              16.6138031
            ],
            [
              120.7710509,
              16.60995833
            ],
            [
              120.76970523,
              16.60687552
            ],
            [
              120.76750578,
              16.60460054
            ],
            [
              120.76625251,
              16.60332867
            ],
            [
              120.76363967,
              16.59606836
            ],
            [
              120.75456099,
              16.56988715
            ],
            [
              120.75352944,
              16.56863619
            ],
            [
              120.75150765,
              16.5661844
            ],
            [
              120.74882253,
              16.56348339
            ],
            [
              120.74489424,
              16.5618835
            ],
            [
              120.7353623,
              16.54897338
            ],
            [
              120.73532923,
              16.54887416
            ],
            [
              120.73516387,
              16.54878597
            ],
            [
              120.72817149,
              16.53333465
            ],
            [
              120.71908902,
              16.52668831
            ],
            [
              120.71274668,
              16.52271537
            ],
            [
              120.70858945,
              16.52038386
            ],
            [
              120.70778734,
              16.51955528
            ],
            [
              120.70630429,
              16.51804296
            ],
            [
              120.70151102,
              16.5141972
            ],
            [
              120.69598646,
              16.50603578
            ],
            [
              120.68758203,
              16.50232675
            ],
            [
              120.67816811,
              16.4981006
            ],
            [
              120.67610798,
              16.5009154
            ],
            [
              120.67246975,
              16.50546318
            ],
            [
              120.67016905,
              16.50854656
            ],
            [
              120.66996831,
              16.50895677
            ],
            [
              120.66972394,
              16.50938443
            ],
            [
              120.66958429,
              16.50962008
            ],
            [
              120.66958429,
              16.50983828
            ],
            [
              120.66966284,
              16.51001283
            ],
            [
              120.6696803,
              16.51023975
            ],
            [
              120.6696803,
              16.51047541
            ],
            [
              120.66967157,
              16.51064996
            ],
            [
              120.66968903,
              16.51078961
            ],
            [
              120.6695232,
              16.51081579
            ],
            [
              120.66915663,
              16.51080706
            ],
            [
              120.66882497,
              16.51068487
            ],
            [
              120.66849332,
              16.51059759
            ],
            [
              120.66808311,
              16.51073724
            ],
            [
              120.66753326,
              16.51119981
            ],
            [
              120.66729761,
              16.51168857
            ],
            [
              120.66697468,
              16.5122646
            ],
            [
              120.66666921,
              16.51251771
            ],
            [
              120.66627646,
              16.5125788
            ],
            [
              120.66599717,
              16.51278827
            ],
            [
              120.66598844,
              16.5131112
            ],
            [
              120.66601462,
              16.51325957
            ],
            [
              120.66588371,
              16.51343413
            ],
            [
              120.66543859,
              16.51366978
            ],
            [
              120.66480146,
              16.51393161
            ],
            [
              120.66445235,
              16.5141149
            ],
            [
              120.66395486,
              16.5147433
            ],
            [
              120.66361448,
              16.51498767
            ],
            [
              120.66340501,
              16.51538915
            ],
            [
              120.6633701,
              16.51577318
            ],
            [
              120.6632741,
              16.51605247
            ],
            [
              120.66309081,
              16.51626193
            ],
            [
              120.66290753,
              16.51627066
            ],
            [
              120.66265442,
              16.51613974
            ],
            [
              120.66247114,
              16.51601755
            ],
            [
              120.66232277,
              16.51594773
            ],
            [
              120.66196493,
              16.51594773
            ],
            [
              120.66144999,
              16.51601755
            ],
            [
              120.66107469,
              16.51601755
            ],
            [
              120.66075176,
              16.51610483
            ],
            [
              120.66039392,
              16.51621829
            ],
            [
              120.66002736,
              16.51628812
            ],
            [
              120.65989644,
              16.51634921
            ],
            [
              120.65978298,
              16.51654122
            ],
            [
              120.65980916,
              16.51685542
            ],
            [
              120.6598528,
              16.51743146
            ],
            [
              120.65984407,
              16.51758856
            ],
            [
              120.65994008,
              16.5177282
            ],
            [
              120.66001863,
              16.51785912
            ],
            [
              120.66003608,
              16.51805986
            ],
            [
              120.66003608,
              16.51822569
            ],
            [
              120.65998372,
              16.51849625
            ],
            [
              120.65933786,
              16.51894137
            ],
            [
              120.65904984,
              16.51917702
            ],
            [
              120.65885783,
              16.51931666
            ],
            [
              120.65879674,
              16.51947376
            ],
            [
              120.65838653,
              16.52004107
            ],
            [
              120.6582207,
              16.52023308
            ],
            [
              120.65805488,
              16.52044255
            ],
            [
              120.65784541,
              16.52078293
            ],
            [
              120.65766212,
              16.52106222
            ],
            [
              120.65748757,
              16.5214637
            ],
            [
              120.65732174,
              16.52175172
            ],
            [
              120.65723231,
              16.52217735
            ],
            [
              120.65367781,
              16.52417794
            ],
            [
              120.65204413,
              16.52740957
            ],
            [
              120.65053675,
              16.52956706
            ],
            [
              120.65039472,
              16.52972604
            ],
            [
              120.65036889,
              16.52983307
            ],
            [
              120.65024873,
              16.52997492
            ],
            [
              120.65001587,
              16.5302179
            ],
            [
              120.64879643,
              16.53648485
            ],
            [
              120.6457445,
              16.55149787
            ],
            [
              120.6433106,
              16.56283285
            ],
            [
              120.64318805,
              16.56446387
            ],
            [
              120.64323888,
              16.57473193
            ],
            [
              120.64315288,
              16.5818562
            ],
            [
              120.64318417,
              16.59873816
            ],
            [
              120.64386803,
              16.6014736
            ],
            [
              120.64425049,
              16.6028445
            ],
            [
              120.64414924,
              16.60317358
            ],
            [
              120.64432644,
              16.60352797
            ],
            [
              120.64495928,
              16.60411018
            ],
            [
              120.64554149,
              16.60471771
            ],
            [
              120.64566806,
              16.60522398
            ],
            [
              120.65826164,
              16.61563325
            ],
            [
              120.66197775,
              16.61872713
            ],
            [
              120.66328466,
              16.61994745
            ],
            [
              120.66344716,
              16.62016412
            ],
            [
              120.66389403,
              16.62038078
            ],
            [
              120.66412424,
              16.62081411
            ],
            [
              120.66454402,
              16.62104432
            ],
            [
              120.66496381,
              16.62126098
            ],
            [
              120.66516693,
              16.62135577
            ],
            [
              120.66557318,
              16.62135577
            ],
            [
              120.66591172,
              16.62149119
            ],
            [
              120.66616901,
              16.62143702
            ],
            [
              120.66645338,
              16.62143702
            ],
            [
              120.666819,
              16.62150473
            ],
            [
              120.66696796,
              16.62138286
            ],
            [
              120.66717108,
              16.62135577
            ],
            [
              120.66742837,
              16.62150473
            ],
            [
              120.66757733,
              16.62169431
            ],
            [
              120.66748254,
              16.62185681
            ],
            [
              120.66744191,
              16.62197868
            ],
            [
              120.66761795,
              16.62205993
            ],
            [
              120.66784816,
              16.62199222
            ],
            [
              120.66811899,
              16.62196514
            ],
            [
              120.66821378,
              16.62212764
            ],
            [
              120.66840336,
              16.62220889
            ],
            [
              120.66889025,
              16.62220706
            ],
            [
              120.66909067,
              16.62231251
            ],
            [
              120.6691795,
              16.62239983
            ],
            [
              120.66928038,
              16.62253384
            ],
            [
              120.66932404,
              16.62269193
            ],
            [
              120.66931049,
              16.62280033
            ],
            [
              120.66933663,
              16.62307666
            ],
            [
              120.66955528,
              16.62375088
            ],
            [
              120.6698403,
              16.62465343
            ],
            [
              120.67067159,
              16.62491469
            ],
            [
              120.67162164,
              16.62508095
            ],
            [
              120.67252418,
              16.62524721
            ],
            [
              120.67279331,
              16.62529682
            ],
            [
              120.67292821,
              16.62536426
            ],
            [
              120.67298816,
              16.62542796
            ],
            [
              120.67299566,
              16.62560033
            ],
            [
              120.67298441,
              16.6257727
            ],
            [
              120.67385758,
              16.62647733
            ],
            [
              120.67391807,
              16.62665879
            ],
            [
              120.6739967,
              16.62674347
            ],
            [
              120.67426284,
              16.62674347
            ],
            [
              120.67469834,
              16.62677976
            ],
            [
              120.67500682,
              16.62695517
            ],
            [
              120.67545442,
              16.62717292
            ],
            [
              120.675775,
              16.62734229
            ],
            [
              120.6759988,
              16.62757818
            ],
            [
              120.677412,
              16.62822658
            ],
            [
              120.67818015,
              16.62870276
            ],
            [
              120.67944757,
              16.63065144
            ],
            [
              120.67955092,
              16.63126394
            ],
            [
              120.67998379,
              16.63245434
            ],
            [
              120.68451335,
              16.64061978
            ],
            [
              120.68749821,
              16.64456966
            ],
            [
              120.68854632,
              16.64469654
            ],
            [
              120.69861705,
              16.64494311
            ],
            [
              120.69890305,
              16.64507565
            ],
            [
              120.69948204,
              16.64511751
            ],
            [
              120.69985175,
              16.6450617
            ],
            [
              120.70022146,
              16.64501287
            ],
            [
              120.70051444,
              16.64497102
            ],
            [
              120.70102366,
              16.64493614
            ],
            [
              120.70135008,
              16.64502819
            ],
            [
              120.70154202,
              16.64505938
            ],
            [
              120.70169078,
              16.64501619
            ],
            [
              120.70182275,
              16.64492502
            ],
            [
              120.71041723,
              16.64391968
            ],
            [
              120.71276197,
              16.64362226
            ],
            [
              120.71266242,
              16.64331367
            ],
            [
              120.71239366,
              16.64287568
            ],
            [
              120.71222443,
              16.64227841
            ],
            [
              120.71222443,
              16.6420196
            ],
            [
              120.71224434,
              16.6416911
            ],
            [
              120.71218461,
              16.64144224
            ],
            [
              120.7124932,
              16.64171101
            ],
            [
              120.71310042,
              16.64268654
            ],
            [
              120.713625,
              16.64340306
            ],
            [
              120.714527,
              16.64448349
            ],
            [
              120.71560743,
              16.64505839
            ],
            [
              120.71642022,
              16.64527646
            ],
            [
              120.71729249,
              16.64516742
            ],
            [
              120.71767906,
              16.6448205
            ],
            [
              120.7180359,
              16.64437445
            ],
            [
              120.71851168,
              16.64332377
            ],
            [
              120.71870001,
              16.64299666
            ],
            [
              120.71929474,
              16.64279842
            ],
            [
              120.71984982,
              16.64278851
            ],
            [
              120.72014719,
              16.64307596
            ],
            [
              120.72036526,
              16.64353192
            ],
            [
              120.72051323,
              16.64386155
            ],
            [
              120.72079512,
              16.6439611
            ],
            [
              120.72130659,
              16.64383751
            ],
            [
              120.72153498,
              16.64366922
            ],
            [
              120.72182347,
              16.64356104
            ],
            [
              120.72222015,
              16.64352497
            ],
            [
              120.72244854,
              16.64380145
            ],
            [
              120.72246056,
              16.64410196
            ],
            [
              120.72231632,
              16.6444746
            ],
            [
              120.72222015,
              16.64489532
            ],
            [
              120.72238844,
              16.64519584
            ],
            [
              120.72280916,
              16.64580889
            ],
            [
              120.72304957,
              16.64630173
            ],
            [
              120.72320959,
              16.64656161
            ],
            [
              120.72360247,
              16.64676285
            ],
            [
              120.72407202,
              16.64685867
            ],
            [
              120.72434991,
              16.64704074
            ],
            [
              120.72487696,
              16.64721323
            ],
            [
              120.72522193,
              16.6473378
            ],
            [
              120.72555732,
              16.64747196
            ],
            [
              120.7262281,
              16.64762528
            ],
            [
              120.72664015,
              16.64767319
            ],
            [
              120.72693721,
              16.64786484
            ],
            [
              120.72728219,
              16.64825773
            ],
            [
              120.727493,
              16.64864103
            ],
            [
              120.72775173,
              16.64911058
            ],
            [
              120.72783798,
              16.64931181
            ],
            [
              120.72763907,
              16.64969044
            ],
            [
              120.72770561,
              16.65015623
            ],
            [
              120.72767234,
              16.65047229
            ],
            [
              120.72767234,
              16.650805
            ],
            [
              120.72772225,
              16.65110443
            ],
            [
              120.72752263,
              16.65180311
            ],
            [
              120.72740618,
              16.65236871
            ],
            [
              120.72717329,
              16.65275132
            ],
            [
              120.72689049,
              16.65308402
            ],
            [
              120.72697366,
              16.65376606
            ],
            [
              120.72733964,
              16.65504697
            ],
            [
              120.72772225,
              16.65519669
            ],
            [
              120.72820467,
              16.65536304
            ],
            [
              120.72838765,
              16.65579555
            ],
            [
              120.72810486,
              16.65634452
            ],
            [
              120.72783869,
              16.65659404
            ],
            [
              120.72785533,
              16.65775851
            ],
            [
              120.7279385,
              16.65830747
            ],
            [
              120.72820467,
              16.65870671
            ],
            [
              120.72975174,
              16.65913923
            ],
            [
              120.73088293,
              16.65927231
            ],
            [
              120.73106592,
              16.6595052
            ],
            [
              120.73121564,
              16.65993772
            ],
            [
              120.73149843,
              16.66038687
            ],
            [
              120.7320973,
              16.66070293
            ],
            [
              120.73259636,
              16.66115208
            ],
            [
              120.73312868,
              16.66180086
            ],
            [
              120.73326176,
              16.66234982
            ],
            [
              120.73346139,
              16.66284887
            ],
            [
              120.73381073,
              16.66284887
            ],
            [
              120.73422661,
              16.66283224
            ],
            [
              120.73462585,
              16.66294869
            ],
            [
              120.73484211,
              16.66326475
            ],
            [
              120.73500846,
              16.66374717
            ],
            [
              120.73487538,
              16.6642795
            ],
            [
              120.7347423,
              16.66476192
            ],
            [
              120.73440959,
              16.66511126
            ],
            [
              120.73352793,
              16.6654606
            ],
            [
              120.73324513,
              16.66584321
            ],
            [
              120.73332831,
              16.66624245
            ],
            [
              120.73354456,
              16.66674151
            ],
            [
              120.73354456,
              16.66724056
            ],
            [
              120.73321186,
              16.66765644
            ],
            [
              120.73251318,
              16.66797251
            ],
            [
              120.73208067,
              16.66798915
            ],
            [
              120.73141526,
              16.66795588
            ],
            [
              120.73094947,
              16.66818877
            ],
            [
              120.73068331,
              16.66862128
            ],
            [
              120.7305835,
              16.66903716
            ],
            [
              120.73074985,
              16.66948631
            ],
            [
              120.73141526,
              16.66993546
            ],
            [
              120.73191431,
              16.67040125
            ],
            [
              120.73194758,
              16.67109993
            ],
            [
              120.73193095,
              16.67153244
            ],
            [
              120.73159825,
              16.67178197
            ],
            [
              120.73069995,
              16.67188178
            ],
            [
              120.73013435,
              16.67188178
            ],
            [
              120.7296852,
              16.67211467
            ],
            [
              120.72931923,
              16.67241411
            ],
            [
              120.72950221,
              16.67279672
            ],
            [
              120.72983492,
              16.67316269
            ],
            [
              120.72990146,
              16.67364511
            ],
            [
              120.73000127,
              16.67409426
            ],
            [
              120.73031734,
              16.67437706
            ],
            [
              120.7305835,
              16.67446023
            ],
            [
              120.73079976,
              16.67465986
            ],
            [
              120.7308663,
              16.67492602
            ],
            [
              120.73068331,
              16.67527536
            ],
            [
              120.73020089,
              16.67612375
            ],
            [
              120.73010108,
              16.67653963
            ],
            [
              120.73026743,
              16.67695551
            ],
            [
              120.73046705,
              16.6771385
            ],
            [
              120.73083303,
              16.67748784
            ],
            [
              120.73116573,
              16.67745457
            ],
            [
              120.73151507,
              16.67725495
            ],
            [
              120.73184777,
              16.67703869
            ],
            [
              120.73214721,
              16.67697215
            ],
            [
              120.73247991,
              16.67700542
            ],
            [
              120.73279598,
              16.67725495
            ],
            [
              120.73324513,
              16.67787045
            ],
            [
              120.73364437,
              16.67840277
            ],
            [
              120.73976009,
              16.67797486
            ],
            [
              120.74476832,
              16.67764877
            ],
            [
              120.74508938,
              16.67758765
            ],
            [
              120.75862273,
              16.67690922
            ],
            [
              120.7592611,
              16.67688573
            ],
            [
              120.75964727,
              16.67692717
            ],
            [
              120.76021669,
              16.67711256
            ],
            [
              120.76050802,
              16.67745686
            ],
            [
              120.76061396,
              16.67774819
            ],
            [
              120.7610642,
              16.67814546
            ],
            [
              120.76144823,
              16.67833085
            ],
            [
              120.7624414,
              16.67823816
            ],
            [
              120.76312999,
              16.67817195
            ],
            [
              120.76348754,
              16.67818519
            ],
            [
              120.76367293,
              16.67837058
            ],
            [
              120.76399074,
              16.6786884
            ],
            [
              120.76426883,
              16.67896648
            ],
            [
              120.76462637,
              16.67907242
            ],
            [
              120.76505013,
              16.67908566
            ],
            [
              120.76559306,
              16.67905918
            ],
            [
              120.76645381,
              16.67896648
            ],
            [
              120.77426687,
              16.67932893
            ],
            [
              120.77446167,
              16.67934376
            ],
            [
              120.77745936,
              16.68020593
            ],
            [
              120.78046419,
              16.67984323
            ],
            [
              120.78250901,
              16.67954461
            ],
            [
              120.78635212,
              16.67898553
            ]
          ]
        ]
      }
    }
  ]
}