{
  "type": "FeatureCollection",
  "name": "Benguet_Atok_Paoay_boundary",
  "features": [
    {
      "type": "Feature",
      "geometry": {
        "type": "Polygon",
        "coordinates": [
          [
            [
              120.78237025800001,
              16.637451905000034
            ],
            [
              120.78397571800008,
              16.63077667500005
            ],
            [
              120.77687722900009,
              16.62786655700006
            ],
            [
              120.77427193400001,
              16.617699017000064
            ],
            [
              120.77455797200003,
              16.616677156000037
            ],
            [
              120.76970522600004,
              16.60687551600006
            ],
            [
              120.76625251400003,
              16.60332866600004
            ],
            [
              120.76363967300006,
              16.59606836100005
            ],
            [
              120.75814584400007,
              16.59855094200003
            ],
            [
              120.75533402600001,
              16.60081380300005
            ],
            [
              120.74547852400008,
              16.60069062100007
            ],
            [
              120.74292341000012,
              16.600175922000062
            ],
            [
              120.7364118800001,
              16.60098770700006
            ],
            [
              120.73217156800001,
              16.60628809600007
            ],
            [
              120.73086160300011,
              16.60920593000003
            ],
            [
              120.73369908400002,
              16.61483307000003
            ],
            [
              120.73740311200004,
              16.62462917700003
            ],
            [
              120.73805094000011,
              16.628966330000026
            ],
            [
              120.74625591300003,
              16.638681422000047
            ],
            [
              120.7572258560001,
              16.638802304000023
            ],
            [
              120.76295226500008,
              16.64059117200003
            ],
            [
              120.77037128000006,
              16.640614138000046
            ],
            [
              120.77757546400005,
              16.638311586000043
            ],
            [
              120.78237025800001,
              16.637451905000034
            ]
          ]
        ]
      },
      "properties": {
        "ADM1_PCODE": "PH140000000",
        "ADM1_EN": "CORDILLERA ADMINISTRATIVE REGION (CAR)",
        "ADM2_PCODE": "PH141100000",
        "ADM2_EN": "BENGUET",
        "ADM3_PCODE": "PH141101000",
        "ADM3_EN": "ATOK",
        "ADM4_PCODE": "PH141101005",
        "ADM4_EN": "Paoay",
        "psgc": "1401101005",
        "parent_psgc": "1401101000",
        "source_url": "https://raw.githubusercontent.com/faeldon/philippines-json-maps/master/2019/geojson/barangays/hires/barangays-municity-ph141101000.0.1.json",
        "source_dataset": "faeldon/philippines-json-maps 2019 barangay hires GeoJSON",
        "note": "Extracted for Taniman Atok/Paoay study-area migration."
      }
    }
  ]
}